NORAD_CAT_ID,OBJECT_NAME,OBJECT_TYPE,EPOCH,MEAN_MOTION,ECCENTRICITY,INCLINATION,RA_OF_ASC_NODE,ARG_OF_PERICENTER,MEAN_ANOMALY,BSTAR,MEAN_MOTION_DOT,MEAN_MOTION_DDOT,TLE_LINE0,TLE_LINE1,TLE_LINE2,SEMIMAJOR_AXIS,PERIOD,APOGEE,PERIGEE,DECAYED
51869.0,STARLINK-3588,PAYLOAD,2022-09-25 08:10:50,15.08849937,0.0001654,53.2165,271.5503,52.8338,307.2805,8.219700000000001e-05,1.021e-05,0.0,0 STARLINK-3588,1 51869U 22022T   22268.34086472  .00001021  00000-0  82197-4 0  9996,2 51869  53.2165 271.5503 0001654  52.8338 307.2805 15.08849937 32690,6917.85,95.437,540.859,538.571,0.0
51869.0,STARLINK-3588,PAYLOAD,2022-09-25 17:43:10,15.08838599,0.0002002,53.217,269.7665,52.9607,307.1568,0.00010793,1.4300000000000004e-05,0.0,0 STARLINK-3588,1 51869U 22022T   22268.73831142  .00001430  00000-0  10793-3 0  9997,2 51869  53.2170 269.7665 0002002  52.9607 307.1568 15.08838599 32756,6917.885,95.438,541.135,538.365,0.0
51869.0,STARLINK-3588,PAYLOAD,2022-09-26 06:26:14,15.08859491,0.0002134999999999,53.2173,267.3869,45.8095,314.3072,-0.00012069,-2.21e-05,0.0,0 STARLINK-3588,1 51869U 22022T   22269.26822430 -.00002210  00000-0 -12069-3 0  9993,2 51869  53.2173 267.3869 0002135  45.8095 314.3072 15.08859491 32831,6917.821,95.436,541.163,538.2090000000002,0.0
51869.0,STARLINK-3588,PAYLOAD,2022-09-26 11:12:24,15.08834451,0.0002078,53.2169,266.4944,47.0565,313.0602,-1.494e-05,-5.26e-06,0.0,0 STARLINK-3588,1 51869U 22022T   22269.46695584 -.00000526  00000-0 -14940-4 0  9992,2 51869  53.2169 266.4944 0002078  47.0565 313.0602 15.08834451 32869,6917.897,95.438,541.2,538.325,0.0
51869.0,STARLINK-3588,PAYLOAD,2022-09-26 17:33:57,15.08839609,0.0001982,53.217,265.3046,50.8396,309.2772,-2.191800000000001e-05,-6.37e-06,0.0,0 STARLINK-3588,1 51869U 22022T   22269.73191277 -.00000637  00000-0 -21918-4 0  9998,2 51869  53.2170 265.3046 0001982  50.8396 309.2772 15.08839609 32909,6917.882,95.438,541.118,538.375,0.0
51869.0,STARLINK-3588,PAYLOAD,2022-09-27 03:06:15,15.08850436,0.0002037,53.2162,263.5226,44.6586,315.457,-0.00015213,-2.709e-05,0.0,0 STARLINK-3588,1 51869U 22022T   22270.12935086 -.00002709  00000-0 -15213-3 0  9999,2 51869  53.2162 263.5226 0002037  44.6586 315.4570 15.08850436 32966,6917.848000000001,95.437,541.123,538.304,0.0
51869.0,STARLINK-3588,PAYLOAD,2022-09-27 11:03:10,15.088524800000002,0.0001978,53.2169,262.0335,53.1179,306.9994,-1.0547e-05,-4.56e-06,0.0,0 STARLINK-3588,1 51869U 22022T   22270.46054264 -.00000456  00000-0 -10547-4 0  9999,2 51869  53.2169 262.0335 0001978  53.1179 306.9994 15.08852480 33017,6917.842,95.437,541.076,538.339,0.0
51869.0,STARLINK-3588,PAYLOAD,2022-09-28 04:32:26,15.0883973,0.0001935,53.2168,258.7622,52.021,308.0957,1.8932e-05,1.3e-07,0.0,0 STARLINK-3588,1 51869U 22022T   22271.18919044  .00000013  00000-0  18932-4 0  9998,2 51869  53.2168 258.7622 0001935  52.0210 308.0957 15.08839730 33121,6917.880999999999,95.438,541.085,538.408,0.0
51869.0,STARLINK-3588,PAYLOAD,2022-09-28 10:53:58,15.088390300000002,0.0001915,53.2168,257.5717,57.7738,302.344,0.00014658,2.045e-05,0.0,0 STARLINK-3588,1 51869U 22022T   22271.45414743  .00002045  00000-0  14658-3 0  9991,2 51869  53.2168 257.5717 0001915  57.7738 302.3440 15.08839030 33169,6917.8830000000025,95.438,541.073,538.424,0.0
51869.0,STARLINK-3588,PAYLOAD,2022-09-29 10:44:46,15.08828224,0.0001915,53.2164,253.1127,51.9228,308.1937,-5.4247e-05,-1.151e-05,0.0,0 STARLINK-3588,1 51869U 22022T   22272.44776145 -.00001151  00000-0 -54247-4 0  9996,2 51869  53.2164 253.1127 0001915  51.9228 308.1937 15.08828224 33317,6917.916,95.438,541.106,538.457,0.0
51869.0,STARLINK-3588,PAYLOAD,2022-09-30 02:38:40,15.08796871,0.0001621999999999,53.2168,250.1377,47.9999,312.1131,-0.00030957,-5.206e-05,0.0,0 STARLINK-3588,1 51869U 22022T   22273.11019310 -.00005206  00000-0 -30957-3 0  9991,2 51869  53.2168 250.1377 0001622  47.9999 312.1131 15.08796871 33414,6918.012,95.44,540.999,538.755,0.0
51869.0,STARLINK-3588,PAYLOAD,2022-09-30 09:00:11,15.08825854,0.0001440999999999,53.2169,248.9489,53.8797,306.2329,-4.8761e-05,-1.064e-05,0.0,0 STARLINK-3588,1 51869U 22022T   22273.37513398 -.00001064  00000-0 -48761-4 0  9995,2 51869  53.2169 248.9489 0001441  53.8797 306.2329 15.08825854 33456,6917.924,95.438,540.786,538.7919999999998,0.0
51869.0,STARLINK-3588,PAYLOAD,2022-09-30 15:21:43,15.0883463,0.000167,53.2165,247.7588,53.8426,306.272,2.3843e-05,9.1e-07,0.0,0 STARLINK-3588,1 51869U 22022T   22273.64008939  .00000091  00000-0  23843-4 0  9996,2 51869  53.2165 247.7588 0001670  53.8426 306.2720 15.08834630 33493,6917.897,95.438,540.9169999999998,538.607,0.0
51869.0,STARLINK-3588,PAYLOAD,2022-10-01 07:15:34,15.0884184,0.0001774,53.2166,244.7861,49.6766,310.4381,0.00027723,4.127e-05,0.0,0 STARLINK-3588,1 51869U 22022T   22274.30248312  .00004127  00000-0  27723-3 0  9995,2 51869  53.2166 244.7861 0001774  49.6766 310.4381 15.08841840 33592,6917.875,95.437,540.967,538.513,0.0
51869.0,STARLINK-3588,PAYLOAD,2022-10-01 21:34:02,15.08852681,0.0001662,53.2159,242.1094,50.5702,309.5437,0.00050162,7.707e-05,0.0,0 STARLINK-3588,1 51869U 22022T   22274.89864427  .00007707  00000-0  50162-3 0  9990,2 51869  53.2159 242.1094 0001662  50.5702 309.5437 15.08852681 33687,6917.842,95.437,540.856,538.557,0.0
51869.0,STARLINK-3588,PAYLOAD,2022-10-02 05:30:59,15.08835556,0.0001778,53.2161,240.6221,49.7167,310.3981,0.00029917,4.476e-05,0.0,0 STARLINK-3588,1 51869U 22022T   22275.22985316  .00004476  00000-0  29917-3 0  9993,2 51869  53.2161 240.6221 0001778  49.7167 310.3981 15.08835556 33730,6917.894,95.438,540.989,538.529,0.0
51869.0,STARLINK-3588,PAYLOAD,2022-10-02 10:17:08,15.08841444,0.0001988,53.2159,239.7304,52.4188,307.6984,0.00026194,3.883e-05,0.0,0 STARLINK-3588,1 51869U 22022T   22275.42857205  .00003883  00000-0  26194-3 0  9995,2 51869  53.2159 239.7304 0001988  52.4188 307.6984 15.08841444 33763,6917.876,95.437,541.116,538.366,0.0
51869.0,STARLINK-3588,PAYLOAD,2022-10-02 15:03:17,15.08848709,0.0001836,53.2162,238.8384,50.7227,309.3928,0.00029312,4.381e-05,0.0,0 STARLINK-3588,1 51869U 22022T   22275.62728755  .00004381  00000-0  29312-3 0  9993,2 51869  53.2162 238.8384 0001836  50.7227 309.3928 15.08848709 33793,6917.854,95.437,540.989,538.4490000000002,0.0
51869.0,STARLINK-3588,PAYLOAD,2022-10-03 08:32:31,15.08857022,0.0001823,53.2153,235.5675,53.0332,307.0827,0.00054574,8.412e-05,0.0,0 STARLINK-3588,1 51869U 22022T   22276.35592183  .00008412  00000-0  54574-3 0  9995,2 51869  53.2153 235.5675 0001823  53.0332 307.0827 15.08857022 33903,6917.828,95.436,540.9540000000002,538.432,0.0
51869.0,STARLINK-3588,PAYLOAD,2022-10-03 14:54:03,15.08866466,0.0001829,53.2153,234.3781,52.9024,307.2136,0.00084323,0.00013167,0.0,0 STARLINK-3588,1 51869U 22022T   22276.62087811  .00013167  00000-0  84323-3 0  9990,2 51869  53.2153 234.3781 0001829  52.9024 307.2136 15.08866466 33941,6917.799,95.436,540.93,538.399,0.0
51869.0,STARLINK-3588,PAYLOAD,2022-10-04 02:01:45,15.08869009,0.000175,53.215,232.2966,51.4799,308.635,0.00072916,0.00011345,0.0,0 STARLINK-3588,1 51869U 22022T   22277.08455163  .00011345  00000-0  72916-3 0  9991,2 51869  53.2150 232.2966 0001750  51.4799 308.6350 15.08869009 34014,6917.792,95.436,540.867,538.446,0.0
51869.0,STARLINK-3588,PAYLOAD,2022-10-04 06:47:54,15.08861475,0.0001905,53.2161,231.4069,45.5183,314.5964,0.00042258,6.448e-05,0.0,0 STARLINK-3588,1 51869U 22022T   22277.28327119  .00006448  00000-0  42258-3 0  9996,2 51869  53.2161 231.4069 0001905  45.5183 314.5964 15.08861475 34043,6917.815,95.436,540.998,538.362,0.0
51869.0,STARLINK-3588,PAYLOAD,2022-10-05 03:27:55,15.08842139,0.0001647,53.2152,227.5387,43.1071,317.005,-0.0001471,-2.629e-05,0.0,0 STARLINK-3588,1 51869U 22022T   22278.14439002 -.00002629  00000-0 -14710-3 0  9998,2 51869  53.2152 227.5387 0001647  43.1071 317.0050 15.08842139 34179,6917.874,95.437,540.878,538.599,0.0
51869.0,STARLINK-3588,PAYLOAD,2022-10-06 12:51:01,15.08826851,0.0001648,53.2155,221.292,48.2986,311.8147,-9.4561e-05,-1.792e-05,0.0,0 STARLINK-3588,1 51869U 22022T   22279.53543953 -.00001792  00000-0 -94561-4 0  9996,2 51869  53.2155 221.2920 0001648  48.2986 311.8147 15.08826851 34383,6917.920999999999,95.438,540.9259999999998,538.646,0.0
51869.0,STARLINK-3588,PAYLOAD,2022-10-07 03:09:30,15.08836645,0.0001633,53.2159,218.6159,46.7036,313.4093,0.00016847,2.394e-05,0.0,0 STARLINK-3588,1 51869U 22022T   22280.13160055  .00002394  00000-0  16847-3 0  9999,2 51869  53.2159 218.6159 0001633  46.7036 313.4093 15.08836645 34474,6917.891,95.438,540.885,538.626,0.0
51869.0,STARLINK-3588,PAYLOAD,2022-10-07 12:41:48,15.08850348,0.0001669,53.2165,216.8328,50.9774,309.1367,0.0005044,7.751e-05,0.0,0 STARLINK-3588,1 51869U 22022T   22280.52903775  .00007751  00000-0  50440-3 0  9995,2 51869  53.2165 216.8328 0001669  50.9774 309.1367 15.08850348 34533,6917.849,95.437,540.868,538.559,0.0
51869.0,STARLINK-3588,PAYLOAD,2022-10-08 04:35:40,15.08846481,0.000153,53.2161,213.8601,58.8634,301.2508,0.00039047,5.933e-05,0.0,0 STARLINK-3588,1 51869U 22022T   22281.19144144  .00005933  00000-0  39047-3 0  9996,2 51869  53.2161 213.8601 0001530  58.8634 301.2508 15.08846481 34633,6917.861,95.437,540.784,538.6669999999998,0.0
51869.0,STARLINK-3588,PAYLOAD,2022-10-08 12:32:36,15.08841314,0.0001553,53.2161,212.3732,58.3081,301.8063,0.00023129,3.395e-05,0.0,0 STARLINK-3588,1 51869U 22022T   22281.52264307  .00003395  00000-0  23129-3 0  9991,2 51869  53.2161 212.3732 0001553  58.3081 301.8063 15.08841314 34685,6917.876,95.437,540.816,538.6669999999998,0.0
51869.0,STARLINK-3588,PAYLOAD,2022-10-09 04:26:27,15.08834926,0.0001691,53.2161,209.3993,55.5648,304.5504,1.2183e-05,-9.4e-07,0.0,0 STARLINK-3588,1 51869U 22022T   22282.18504575 -.00000094  00000-0  12183-4 0  9991,2 51869  53.2161 209.3993 0001691  55.5648 304.5504 15.08834926 34783,6917.896,95.438,540.931,538.591,0.0
